*******************************************************************************
JPL/HORIZONS                39 Laetitia (A856 CA)          2020-Jun-20 07:57:37
Rec #:      39 (+COV) Soln.date: 2020-Jan-28_17:13:02   # obs: 5850 (1856-2020)
 
IAU76/J2000 helio. ecliptic osc. elements (au, days, deg., period=Julian yrs):
 
  EPOCH=  2450840.5 ! 1998-Jan-27.00 (TDB)         Residual RMS= .36372
   EC= .1116898707651787   QR= 2.459772504534127   TP= 2450454.9143561842
   OM= 157.2509688488495   W=  208.2096706966147   IN= 10.37019910879749
   A= 2.769047006874663    MA= 82.47635081332039   ADIST= 3.078321509215199
   PER= 4.60791            N= .213898909           ANGMOM= .028445969
   DAN= 3.03303            DDN= 2.48948            L= 5.069369
   B= -4.8811711           MOID= 1.45968997        TP= 1997-Jan-06.4143561842
 
Asteroid physical parameters (km, seconds, rotational period in hours):
   GM= n.a.                RAD= 89.742             ROTPER= 5.138
   H= 6.1                  G= .150                 B-V= .898
                           ALBEDO= .269            STYP= S
 
ASTEROID comments: 
1: soln ref.= JPL#106, OCC=0
2: source=ORB
*******************************************************************************
 
 
*******************************************************************************
Ephemeris / WWW_USER Sat Jun 20 07:57:37 2020 Pasadena, USA      / Horizons
*******************************************************************************
Target body name: 39 Laetitia (A856 CA)           {source: JPL#106}
Center body name: Solar System Barycenter (0)     {source: DE431}
Center-site name: BODY CENTER
*******************************************************************************
Start time      : A.D. 1969-Jun-28 00:00:00.0000 TDB
Stop  time      : A.D. 2071-May-04 00:00:00.0000 TDB
Step-size       : 7200 minutes
*******************************************************************************
Center geodetic : 0.00000000,0.00000000,0.0000000 {E-lon(deg),Lat(deg),Alt(km)}
Center cylindric: 0.00000000,0.00000000,0.0000000 {E-lon(deg),Dxy(km),Dz(km)}
Center radii    : (undefined)                                                  
Small perturbers: Yes                             {source: SB431-N16}
Output units    : AU-D
Output type     : GEOMETRIC cartesian states
Output format   : 2 (position and velocity)
Reference frame : Ecliptic of J2000.0
*******************************************************************************
Initial IAU76/J2000 heliocentric ecliptic osculating elements (au, days, deg.):
  EPOCH=  2450840.5 ! 1998-Jan-27.00 (TDB)         Residual RMS= .36372        
   EC= .1116898707651787   QR= 2.459772504534127   TP= 2450454.9143561842      
   OM= 157.2509688488495   W=  208.2096706966147   IN= 10.37019910879749       
  Equivalent ICRF heliocentric equatorial cartesian coordinates (au, au/d):
   X=-5.300873217065412E-01  Y= 2.623584640631071E+00  Z= 6.854379395171439E-01
  VX=-1.030068308988534E-02 VY=-9.922925127632245E-04 VZ= 4.954726546805586E-04
Asteroid physical parameters (km, seconds, rotational period in hours):        
   GM= n.a.                RAD= 89.742             ROTPER= 5.138               
   H= 6.1                  G= .150                 B-V= .898                   
                           ALBEDO= .269            STYP= S                     
*******************************************************************************
            JDTDB,            Calendar Date (TDB),        delta-T,                      X,                      Y,                      Z,                     VX,                     VY,                     VZ,
******************************************************************************************************************************************************************************************************************
$$SOE
2454400.500000000, A.D. 2007-Oct-27 00:00:00.0000,      65.182433, -2.253077714983761E+00,  1.919849679826801E+00, -1.631744429922456E-01, -6.864523422284231E-03, -6.581137543673047E-03,  1.599566298109393E-03,
2454405.500000000, A.D. 2007-Nov-01 00:00:00.0000,      65.182490, -2.287078367857161E+00,  1.886673296532402E+00, -1.551538034225702E-01, -6.735510453029118E-03, -6.689022578215318E-03,  1.608606958681644E-03,
2454410.500000000, A.D. 2007-Nov-06 00:00:00.0000,      65.182560, -2.320430581366675E+00,  1.852963389301679E+00, -1.470891972139982E-01, -6.605154576189648E-03, -6.794546475081759E-03,  1.617153335533120E-03,
2454415.500000000, A.D. 2007-Nov-11 00:00:00.0000,      65.182642, -2.353127743989020E+00,  1.818731773062731E+00, -1.389830900226166E-01, -6.473496902396757E-03, -6.897705618949564E-03,  1.625207740450836E-03,
2454420.500000000, A.D. 2007-Nov-16 00:00:00.0000,      65.182734, -2.385163448331313E+00,  1.783990279632823E+00, -1.308379358469846E-01, -6.340577974296239E-03, -6.998496865311859E-03,  1.632772524047694E-03,
2454425.500000000, A.D. 2007-Nov-21 00:00:00.0000,      65.182835, -2.416531488307950E+00,  1.748750755425647E+00, -1.226561768429239E-01, -6.206437773309584E-03, -7.096917516159303E-03,  1.639850072238952E-03,
2454430.500000000, A.D. 2007-Nov-26 00:00:00.0000,      65.182943, -2.447225856352454E+00,  1.713025059277257E+00, -1.144402431554054E-01, -6.071115726951102E-03, -7.192965296742625E-03,  1.646442802900859E-03,
2454435.500000000, A.D. 2007-Dec-01 00:00:00.0000,      65.183059, -2.477240740667658E+00,  1.676825060386558E+00, -1.061925527668846E-01, -5.934650716787489E-03, -7.286638332938501E-03,  1.652553162634899E-03,
2454440.500000000, A.D. 2007-Dec-06 00:00:00.0000,      65.183185, -2.506570522516455E+00,  1.640162636367641E+00, -9.791551136146080E-02, -5.797081086649805E-03, -7.377935129178976E-03,  1.658183623684055E-03,
2454445.500000000, A.D. 2007-Dec-11 00:00:00.0000,      65.183317, -2.535209773553711E+00,  1.603049671410496E+00, -8.961151220396431E-02, -5.658444650871936E-03, -7.466854547214865E-03,  1.663336681049304E-03,
2454450.500000000, A.D. 2007-Dec-16 00:00:00.0000,      65.183455, -2.563153253199544E+00,  1.565498054545394E+00, -8.128293603296534E-02, -5.518778702629043E-03, -7.553395785904180E-03,  1.668014849800166E-03,
2454455.500000000, A.D. 2007-Dec-21 00:00:00.0000,      65.183595, -2.590395906054952E+00,  1.527519678005665E+00, -7.293215096681328E-02, -5.378120022573784E-03, -7.637558362054887E-03,  1.672220662544423E-03,
2454460.500000000, A.D. 2007-Dec-26 00:00:00.0000,      65.183737, -2.616932859361793E+00,  1.489126435683860E+00, -6.456151242201821E-02, -5.236504887967419E-03, -7.719342092202913E-03,  1.675956667016848E-03,
2454465.500000000, A.D. 2007-Dec-31 00:00:00.0000,      65.183882, -2.642759420509900E+00,  1.450330221677070E+00, -5.617336304344765E-02, -5.093969082412391E-03, -7.798747075133465E-03,  1.679225423759509E-03,
2454470.500000000, A.D. 2008-Jan-05 00:00:00.0000,      65.184029, -2.667871074594360E+00,  1.411142928918188E+00, -4.777003264591811E-02, -4.950547906170871E-03, -7.875773674959098E-03,  1.682029503885675E-03,
2454475.500000000, A.D. 2008-Jan-10 00:00:00.0000,      65.184177, -2.692263482025620E+00,  1.371576447890655E+00, -3.935383816673779E-02, -4.806276186953940E-03, -7.950422504636151E-03,  1.684371486936346E-03,
2454480.500000000, A.D. 2008-Jan-15 00:00:00.0000,      65.184323, -2.715932476194386E+00,  1.331642665424593E+00, -3.092708362870354E-02, -4.661188291022075E-03, -8.022694409889917E-03,  1.686253958846628E-03,
2454485.500000000, A.D. 2008-Jan-20 00:00:00.0000,      65.184465, -2.738874061192479E+00,  1.291353463572230E+00, -2.249206011295211E-02, -4.515318134444225E-03, -8.092590453592409E-03,  1.687679510038492E-03,
2454490.500000000, A.D. 2008-Jan-25 00:00:00.0000,      65.184602, -2.761084409590170E+00,  1.250720718560104E+00, -1.405104574101538E-02, -4.368699194422968E-03, -8.160111900685696E-03,  1.688650733647444E-03,
2454495.500000000, A.D. 2008-Jan-30 00:00:00.0000,      65.184736, -2.782559860270374E+00,  1.209756299815109E+00, -5.606305665423208E-03, -4.221364520745457E-03, -8.225260203725838E-03,  1.689170223872359E-03,
2454500.500000000, A.D. 2008-Feb-04 00:00:00.0000,      65.184865, -2.803296916320870E+00,  1.168472069061426E+00,  2.839907931694123E-03, -4.073346747564204E-03, -8.288036988950196E-03,  1.689240574423448E-03,
2454505.500000000, A.D. 2008-Feb-09 00:00:00.0000,      65.184988, -2.823292242986193E+00,  1.126879879486360E+00,  1.128535583249130E-02, -3.924678105428519E-03, -8.348444042607850E-03,  1.688864377074202E-03,
2454510.500000000, A.D. 2008-Feb-14 00:00:00.0000,      65.185103, -2.842542665679105E+00,  1.084991574973880E+00,  1.972781177042105E-02, -3.775390432969383E-03, -8.406483297612280E-03,  1.688044220370306E-03,
2454515.500000000, A.D. 2008-Feb-19 00:00:00.0000,      65.185208, -2.861045168048928E+00,  1.042818989403089E+00,  2.816506241121500E-02, -3.625515188006245E-03, -8.462156820986425E-03,  1.686782688498753E-03,
2454520.500000000, A.D. 2008-Feb-24 00:00:00.0000,      65.185303, -2.878796890104931E+00,  1.000373946007046E+00,  3.659490732846785E-02, -3.475083458549821E-03, -8.515466802260077E-03,  1.685082360249559E-03,
2454525.500000000, A.D. 2008-Feb-29 00:00:00.0000,      65.185388, -2.895795126395329E+00,  9.576682567877359E-01,  4.501515897416255E-02, -3.324125974066214E-03, -8.566415542555644E-03,  1.682945808027406E-03,
2454530.500000000, A.D. 2008-Mar-05 00:00:00.0000,      65.185465, -2.912037324243148E+00,  9.147137219843732E-01,  5.342364264439216E-02, -3.172673116928129E-03, -8.615005444160023E-03,  1.680375596922843E-03,
2454535.500000000, A.D. 2008-Mar-10 00:00:00.0000,      65.185531, -2.927521082039471E+00,  8.715221295926328E-01,  6.181819644062327E-02, -3.020754933901827E-03, -8.661239000592210E-03,  1.677374283859263E-03,
